LEMUR-2-ARIANNA         
1 62699U 25009CU  26063.20706506  .00013609  00000+0  10759-2 0  9993
2 62699  97.7024 145.5606 0004429 157.9195 202.2220 15.00761381 61803
LEMUR-2-ALISIA          
1 62706U 25009DB  26063.20492062  .00012711  00000+0  99818-3 0  9998
2 62706  97.7071 146.2100 0006339 172.4092 187.7229 15.01025648 84408
LEMUR-2-ROUNDTRIPPER    
1 62711U 25009DG  26063.23204020  .00015149  00000+0  11602-2 0  9994
2 62711  97.7309 146.1946 0004689 139.9398 220.2173 15.01946602 61866
LEMUR-2-MYNAMEISJEFF    
1 62712U 25009DH  26063.23056804  .00014933  00000+0  11443-2 0  9993
2 62712  97.7357 146.5121 0003713 168.0681 192.0632 15.01933689 61861
LEMUR-2-LEIA-PHILIP     
1 63246U 25052AN  26063.26635652  .00009806  00000+0  86619-3 0  9992
2 63246  97.6973 316.9515 0002702 193.9708 166.1439 14.96556300 52974
LEMUR-2-LIA-MARTIN      
1 63248U 25052AQ  26062.95409571  .00008223  00000+0  72435-3 0  9991
2 63248  97.7018 317.0016 0003031 159.4938 200.6405 14.96716530 52939
LEMUR-2-DELOITTE-1      
1 63259U 25052BB  26063.52453204  .00007765  00000+0  68409-3 0  9995
2 63259  97.7053 317.8749 0003261  89.6904 270.4692 14.96728959 53036
LEMUR-2-EMERSONROSE     
1 63261U 25052BD  26063.26850586  .00009655  00000+0  81866-3 0  9995
2 63261  97.7041 317.9714 0003313  63.4780 296.6782 14.98151417 53029
LEMUR-2-MARACHE-FRAN    
1 63262U 25052BE  26063.76867174  .00010172  00000+0  84774-3 0  9999
2 63262  97.7000 318.6548 0002353  42.9681 317.1725 14.98808631 53116
LEMUR-2-THEFALCONER     
1 63264U 25052BG  26063.26794277  .00007058  00000+0  62701-3 0  9994
2 63264  97.6996 317.3562 0002748  34.5569 325.5831 14.96434995 52995
LEMUR-2-UNTITLED-SC     
1 63351U 25061A   26063.46777296  .00007906  00000+0  45452-3 0  9991
2 63351  97.5551  39.7151 0017222 266.3323  93.5938 15.12630328 51753
LEMUR-2-ESPERANZA       
1 63352U 25061B   26063.38467441  .00007057  00000+0  40539-3 0  9999
2 63352  97.5556  39.7032 0016721 265.8912  94.0407 15.12705475 51740
LEMUR-2-KREMPEL-BRO2    
1 63353U 25061C   26063.50732240  .00006470  00000+0  36771-3 0  9997
2 63353  97.5601  40.2249 0017694 257.3837 102.5416 15.13109064 51772
LEMUR-2-THERMORAPTOR    
1 63354U 25061D   26063.49421330  .00007637  00000+0  43240-3 0  9996
2 63354  97.5607  40.2690 0017532 256.3167 103.6112 15.13186678 51776
LEMUR-2-NEUROSPICY      
1 63355U 25061E   26063.47375442  .00009132  00000+0  51500-3 0  9997
2 63355  97.5536  39.9567 0015307 260.5924  99.3577 15.13301373 51779
LEMUR-2-TILLINFINITY    
1 63356U 25061F   26063.81374271  .00007959  00000+0  44196-3 0  9993
2 63356  97.5521  40.5112 0016648 246.3626 113.5858 15.13879012 51847
