[{"OBJECT_NAME":"LEMUR-2-ARIANNA","OBJECT_ID":"2025-009CU","EPOCH":"2026-03-04T04:58:10.421184","MEAN_MOTION":15.00761381,"ECCENTRICITY":0.00044292,"INCLINATION":97.7024,"RA_OF_ASC_NODE":145.5606,"ARG_OF_PERICENTER":157.9195,"MEAN_ANOMALY":202.222,"EPHEMERIS_TYPE":0,"CLASSIFICATION_TYPE":"U","NORAD_CAT_ID":62699,"ELEMENT_SET_NO":999,"REV_AT_EPOCH":6180,"BSTAR":0.0010758625,"MEAN_MOTION_DOT":0.00013609,"MEAN_MOTION_DDOT":0},{"OBJECT_NAME":"LEMUR-2-ALISIA","OBJECT_ID":"2025-009DB","EPOCH":"2026-03-04T04:55:05.141568","MEAN_MOTION":15.01025648,"ECCENTRICITY":0.00063395,"INCLINATION":97.7071,"RA_OF_ASC_NODE":146.21,"ARG_OF_PERICENTER":172.4092,"MEAN_ANOMALY":187.7229,"EPHEMERIS_TYPE":0,"CLASSIFICATION_TYPE":"U","NORAD_CAT_ID":62706,"ELEMENT_SET_NO":999,"REV_AT_EPOCH":8440,"BSTAR":0.00099818414,"MEAN_MOTION_DOT":0.00012711,"MEAN_MOTION_DDOT":0},{"OBJECT_NAME":"LEMUR-2-ROUNDTRIPPER","OBJECT_ID":"2025-009DG","EPOCH":"2026-03-04T05:34:08.273280","MEAN_MOTION":15.01946602,"ECCENTRICITY":0.00046898,"INCLINATION":97.7309,"RA_OF_ASC_NODE":146.1946,"ARG_OF_PERICENTER":139.9398,"MEAN_ANOMALY":220.2173,"EPHEMERIS_TYPE":0,"CLASSIFICATION_TYPE":"U","NORAD_CAT_ID":62711,"ELEMENT_SET_NO":999,"REV_AT_EPOCH":6186,"BSTAR":0.0011602487,"MEAN_MOTION_DOT":0.00015149,"MEAN_MOTION_DDOT":0},{"OBJECT_NAME":"LEMUR-2-MYNAMEISJEFF","OBJECT_ID":"2025-009DH","EPOCH":"2026-03-04T05:32:01.078656","MEAN_MOTION":15.01933689,"ECCENTRICITY":0.0003713,"INCLINATION":97.7357,"RA_OF_ASC_NODE":146.5121,"ARG_OF_PERICENTER":168.0681,"MEAN_ANOMALY":192.0632,"EPHEMERIS_TYPE":0,"CLASSIFICATION_TYPE":"U","NORAD_CAT_ID":62712,"ELEMENT_SET_NO":999,"REV_AT_EPOCH":6186,"BSTAR":0.0011442756,"MEAN_MOTION_DOT":0.00014933,"MEAN_MOTION_DDOT":0},{"OBJECT_NAME":"LEMUR-2-LEIA-PHILIP","OBJECT_ID":"2025-052AN","EPOCH":"2026-03-04T06:23:33.203328","MEAN_MOTION":14.965563,"ECCENTRICITY":0.00027022,"INCLINATION":97.6973,"RA_OF_ASC_NODE":316.9515,"ARG_OF_PERICENTER":193.9708,"MEAN_ANOMALY":166.1439,"EPHEMERIS_TYPE":0,"CLASSIFICATION_TYPE":"U","NORAD_CAT_ID":63246,"ELEMENT_SET_NO":999,"REV_AT_EPOCH":5297,"BSTAR":0.00086619419,"MEAN_MOTION_DOT":9.806e-5,"MEAN_MOTION_DDOT":0},{"OBJECT_NAME":"LEMUR-2-LIA-MARTIN","OBJECT_ID":"2025-052AQ","EPOCH":"2026-03-03T22:53:53.869344","MEAN_MOTION":14.9671653,"ECCENTRICITY":0.0003031,"INCLINATION":97.7018,"RA_OF_ASC_NODE":317.0016,"ARG_OF_PERICENTER":159.4938,"MEAN_ANOMALY":200.6405,"EPHEMERIS_TYPE":0,"CLASSIFICATION_TYPE":"U","NORAD_CAT_ID":63248,"ELEMENT_SET_NO":999,"REV_AT_EPOCH":5293,"BSTAR":0.00072435,"MEAN_MOTION_DOT":8.223e-5,"MEAN_MOTION_DDOT":0},{"OBJECT_NAME":"LEMUR-2-DELOITTE-1","OBJECT_ID":"2025-052BB","EPOCH":"2026-03-04T12:35:19.568256","MEAN_MOTION":14.96728959,"ECCENTRICITY":0.0003261,"INCLINATION":97.7053,"RA_OF_ASC_NODE":317.8749,"ARG_OF_PERICENTER":89.6904,"MEAN_ANOMALY":270.4692,"EPHEMERIS_TYPE":0,"CLASSIFICATION_TYPE":"U","NORAD_CAT_ID":63259,"ELEMENT_SET_NO":999,"REV_AT_EPOCH":5303,"BSTAR":0.00068409,"MEAN_MOTION_DOT":7.765e-5,"MEAN_MOTION_DDOT":0},{"OBJECT_NAME":"LEMUR-2-EMERSONROSE","OBJECT_ID":"2025-052BD","EPOCH":"2026-03-04T06:26:38.906304","MEAN_MOTION":14.98151417,"ECCENTRICITY":0.00033139,"INCLINATION":97.7041,"RA_OF_ASC_NODE":317.9714,"ARG_OF_PERICENTER":63.478,"MEAN_ANOMALY":296.6782,"EPHEMERIS_TYPE":0,"CLASSIFICATION_TYPE":"U","NORAD_CAT_ID":63261,"ELEMENT_SET_NO":999,"REV_AT_EPOCH":5302,"BSTAR":0.00081866214,"MEAN_MOTION_DOT":9.655e-5,"MEAN_MOTION_DDOT":0},{"OBJECT_NAME":"LEMUR-2-MARACHE-FRAN","OBJECT_ID":"2025-052BE","EPOCH":"2026-03-04T18:26:53.238336","MEAN_MOTION":14.98808631,"ECCENTRICITY":0.0002353,"INCLINATION":97.7,"RA_OF_ASC_NODE":318.6548,"ARG_OF_PERICENTER":42.9681,"MEAN_ANOMALY":317.1725,"EPHEMERIS_TYPE":0,"CLASSIFICATION_TYPE":"U","NORAD_CAT_ID":63262,"ELEMENT_SET_NO":999,"REV_AT_EPOCH":5311,"BSTAR":0.00084774,"MEAN_MOTION_DOT":0.00010172,"MEAN_MOTION_DDOT":0},{"OBJECT_NAME":"LEMUR-2-THEFALCONER","OBJECT_ID":"2025-052BG","EPOCH":"2026-03-04T06:25:50.255328","MEAN_MOTION":14.96434995,"ECCENTRICITY":0.00027486,"INCLINATION":97.6996,"RA_OF_ASC_NODE":317.3562,"ARG_OF_PERICENTER":34.5569,"MEAN_ANOMALY":325.5831,"EPHEMERIS_TYPE":0,"CLASSIFICATION_TYPE":"U","NORAD_CAT_ID":63264,"ELEMENT_SET_NO":999,"REV_AT_EPOCH":5299,"BSTAR":0.0006270145,"MEAN_MOTION_DOT":7.058e-5,"MEAN_MOTION_DDOT":0},{"OBJECT_NAME":"LEMUR-2-UNTITLED-SC","OBJECT_ID":"2025-061A","EPOCH":"2026-03-04T11:13:35.583744","MEAN_MOTION":15.12630328,"ECCENTRICITY":0.00172226,"INCLINATION":97.5551,"RA_OF_ASC_NODE":39.7151,"ARG_OF_PERICENTER":266.3323,"MEAN_ANOMALY":93.5938,"EPHEMERIS_TYPE":0,"CLASSIFICATION_TYPE":"U","NORAD_CAT_ID":63351,"ELEMENT_SET_NO":999,"REV_AT_EPOCH":5175,"BSTAR":0.00045451561,"MEAN_MOTION_DOT":7.906e-5,"MEAN_MOTION_DDOT":0},{"OBJECT_NAME":"LEMUR-2-ESPERANZA","OBJECT_ID":"2025-061B","EPOCH":"2026-03-04T09:13:55.869024","MEAN_MOTION":15.12705475,"ECCENTRICITY":0.00167211,"INCLINATION":97.5556,"RA_OF_ASC_NODE":39.7032,"ARG_OF_PERICENTER":265.8912,"MEAN_ANOMALY":94.0407,"EPHEMERIS_TYPE":0,"CLASSIFICATION_TYPE":"U","NORAD_CAT_ID":63352,"ELEMENT_SET_NO":999,"REV_AT_EPOCH":5174,"BSTAR":0.00040539208,"MEAN_MOTION_DOT":7.057e-5,"MEAN_MOTION_DDOT":0},{"OBJECT_NAME":"LEMUR-2-KREMPEL-BRO2","OBJECT_ID":"2025-061C","EPOCH":"2026-03-04T12:10:32.655360","MEAN_MOTION":15.13109064,"ECCENTRICITY":0.0017694,"INCLINATION":97.5601,"RA_OF_ASC_NODE":40.2249,"ARG_OF_PERICENTER":257.3837,"MEAN_ANOMALY":102.5416,"EPHEMERIS_TYPE":0,"CLASSIFICATION_TYPE":"U","NORAD_CAT_ID":63353,"ELEMENT_SET_NO":999,"REV_AT_EPOCH":5177,"BSTAR":0.00036771,"MEAN_MOTION_DOT":6.47e-5,"MEAN_MOTION_DDOT":0},{"OBJECT_NAME":"LEMUR-2-THERMORAPTOR","OBJECT_ID":"2025-061D","EPOCH":"2026-03-04T11:51:40.029120","MEAN_MOTION":15.13186678,"ECCENTRICITY":0.00175325,"INCLINATION":97.5607,"RA_OF_ASC_NODE":40.269,"ARG_OF_PERICENTER":256.3167,"MEAN_ANOMALY":103.6112,"EPHEMERIS_TYPE":0,"CLASSIFICATION_TYPE":"U","NORAD_CAT_ID":63354,"ELEMENT_SET_NO":999,"REV_AT_EPOCH":5177,"BSTAR":0.00043240076,"MEAN_MOTION_DOT":7.637e-5,"MEAN_MOTION_DDOT":0},{"OBJECT_NAME":"LEMUR-2-NEUROSPICY","OBJECT_ID":"2025-061E","EPOCH":"2026-03-04T11:22:12.381888","MEAN_MOTION":15.13301373,"ECCENTRICITY":0.00153076,"INCLINATION":97.5536,"RA_OF_ASC_NODE":39.9567,"ARG_OF_PERICENTER":260.5924,"MEAN_ANOMALY":99.3577,"EPHEMERIS_TYPE":0,"CLASSIFICATION_TYPE":"U","NORAD_CAT_ID":63355,"ELEMENT_SET_NO":999,"REV_AT_EPOCH":5177,"BSTAR":0.00051500484,"MEAN_MOTION_DOT":9.132e-5,"MEAN_MOTION_DDOT":0},{"OBJECT_NAME":"LEMUR-2-TILLINFINITY","OBJECT_ID":"2025-061F","EPOCH":"2026-03-04T19:31:47.370144","MEAN_MOTION":15.13879012,"ECCENTRICITY":0.0016648,"INCLINATION":97.5521,"RA_OF_ASC_NODE":40.5112,"ARG_OF_PERICENTER":246.3626,"MEAN_ANOMALY":113.5858,"EPHEMERIS_TYPE":0,"CLASSIFICATION_TYPE":"U","NORAD_CAT_ID":63356,"ELEMENT_SET_NO":999,"REV_AT_EPOCH":5184,"BSTAR":0.00044196,"MEAN_MOTION_DOT":7.959e-5,"MEAN_MOTION_DDOT":0}]
